STARLINK-2213
1 27780C 21017BL  21325.14828944  .00007179  00000-0  48106-3 0  3259
2 27780  53.0564  57.5667 0001293  70.6276 342.9371 15.06387643    13
